SCD 1                   
1 22490U 93009B   26196.95283150  .00000293  00000+0  29432-4 0  9992
2 22490  24.9705  29.9632 0042081  82.5333  35.7433 14.46128812765286
SCD 2                   
1 25504U 98060A   26196.26197317  .00000274  00000+0  25831-4 0  9994
2 25504  24.9945 259.0250 0016971  60.2756 348.6331 14.45534804464396
SENTINEL-1A             
1 39634U 14016A   26196.96176132 -.00000055  00000+0 -20525-5 0  9996
2 39634  98.1768 204.0743 0001404  86.3602 273.7758 14.59195854654218
SENTINEL-2A             
1 40697U 15028A   26196.95595775 -.00000028  00000+0  58463-5 0  9999
2 40697  98.5683 271.3977 0001279  94.7392 265.3937 14.30814211577847
SENTINEL-3A             
1 41335U 16011A   26196.89967383  .00000047  00000+0  37626-4 0  9990
2 41335  98.6237 263.8689 0001357  89.6135 270.5201 14.26739869542152
SCATSAT 1               
1 41790U 16059H   26196.75273227  .00000639  00000+0  90537-4 0  9996
2 41790  98.1178 260.8119 0055252 154.7791 205.6137 14.79588015105814
SENTINEL-2B             
1 42063U 17013A   26196.94876830  .00000014  00000+0  22102-4 0  9991
2 42063  98.5691 271.3159 0001203  89.8567 270.2753 14.30815055488752
SENTINEL-2C             
1 60989U 24157A   26196.77395792  .00000045  00000+0  33758-4 0  9992
2 60989  98.5684 271.1502 0000965 104.1193 256.0097 14.30815758 97075
SENTINEL-1C             
1 62261U 24235A   26197.00116535  .00000081  00000+0  26954-4 0  9997
2 62261  98.1824 203.9003 0001388  90.2275 269.9084 14.59198044 85616
SENTINEL-1D             
1 66315U 25251A   26196.89846115 -.00000077  00000+0 -66213-5 0  9990
2 66315  98.1841 203.8543 0001321  88.6998 271.4353 14.59197076 36917
